{"type": "FeatureCollection", "features": [ {"type": "Feature", "properties": {"norad_id": 33867, "name": "IRIDIUM 33 DEB", "group": "iridium-33-debris", "lat": 75.43329958818029, "lon": 5.280764737362884, "alt_km": 360.6820658647157, "timestamp": "2025-12-10T18:57:00.450099+00:00", "meta": {"OBJECT_NAME": "IRIDIUM 33 DEB", "OBJECT_ID": "1997-051AL", "EPOCH": "2025-12-10T10:56:50.693856", "MEAN_MOTION": 15.63354376, "ECCENTRICITY": 0.0013167, "INCLINATION": 86.364, "RA_OF_ASC_NODE": 351.2878, "ARG_OF_PERICENTER": 91.1844, "MEAN_ANOMALY": 269.0932, "EPHEMERIS_TYPE": 0, "CLASSIFICATION_TYPE": "U", "NORAD_CAT_ID": 33867, "ELEMENT_SET_NO": 999, "REV_AT_EPOCH": 89475, "BSTAR": 0.0092111, "MEAN_MOTION_DOT": 0.00931891, "MEAN_MOTION_DDOT": 0}, "tle": {"line1": "1 33867U 97051AL  25344.45614229  .00931891  00000+0  92111-2 0  9996", "line2": "2 33867  86.3640 351.2878 0013167  91.1844 269.0932 15.63354376894752"}}, "geometry": {"type": "Point", "coordinates": [5.280764737362884, 75.43329958818029]}}, {"type": "Feature", "properties": {"norad_id": 33870, "name": "IRIDIUM 33 DEB", "group": "iridium-33-debris", "lat": -81.55957272798074, "lon": -95.6078788530319, "alt_km": 743.5535607260854, "timestamp": "2025-12-10T18:57:00.450110+00:00", "meta": {"OBJECT_NAME": "IRIDIUM 33 DEB", "OBJECT_ID": "1997-051AP", "EPOCH": "2025-12-10T06:24:18.912384", "MEAN_MOTION": 14.45830234, "ECCENTRICITY": 0.0021205, "INCLINATION": 86.3744, "RA_OF_ASC_NODE": 59.3205, "ARG_OF_PERICENTER": 186.1349, "MEAN_ANOMALY": 237.0541, "EPHEMERIS_TYPE": 0, "CLASSIFICATION_TYPE": "U", "NORAD_CAT_ID": 33870, "ELEMENT_SET_NO": 999, "REV_AT_EPOCH": 88101, "BSTAR": 0.0012181, "MEAN_MOTION_DOT": 4.353e-05, "MEAN_MOTION_DDOT": 0}, "tle": {"line1": "1 33870U 97051AP  25344.26688556  .00004353  00000+0  12181-2 0  9996", "line2": "2 33870  86.3744  59.3205 0021205 186.1349 237.0541 14.45830234881015"}}, "geometry": {"type": "Point", "coordinates": [-95.6078788530319, -81.55957272798074]}}, {"type": "Feature", "properties": {"norad_id": 33881, "name": "IRIDIUM 33 DEB", "group": "iridium-33-debris", "lat": 54.54299022057223, "lon": 112.68056332009274, "alt_km": 724.8685092018768, "timestamp": "2025-12-10T18:57:00.450121+00:00", "meta": {"OBJECT_NAME": "IRIDIUM 33 DEB", "OBJECT_ID": "1997-051BA", "EPOCH": "2025-12-10T09:03:19.667808", "MEAN_MOTION": 14.56501004, "ECCENTRICITY": 0.0061446, "INCLINATION": 86.3864, "RA_OF_ASC_NODE": 107.7688, "ARG_OF_PERICENTER": 182.2836, "MEAN_ANOMALY": 232.7021, "EPHEMERIS_TYPE": 0, "CLASSIFICATION_TYPE": "U", "NORAD_CAT_ID": 33881, "ELEMENT_SET_NO": 999, "REV_AT_EPOCH": 87466, "BSTAR": 0.0031972, "MEAN_MOTION_DOT": 0.00014624, "MEAN_MOTION_DDOT": 0}, "tle": {"line1": "1 33881U 97051BA  25344.37731097  .00014624  00000+0  31972-2 0  9990", "line2": "2 33881  86.3864 107.7688 0061446 182.2836 232.7021 14.56501004874662"}}, "geometry": {"type": "Point", "coordinates": [112.68056332009274, 54.54299022057223]}}, {"type": "Feature", "properties": {"norad_id": 33884, "name": "IRIDIUM 33 DEB", "group": "iridium-33-debris", "lat": -35.74519896450725, "lon": -166.68233209365474, "alt_km": 647.0862426220137, "timestamp": "2025-12-10T18:57:00.450132+00:00", "meta": {"OBJECT_NAME": "IRIDIUM 33 DEB", "OBJECT_ID": "1997-051BD", "EPOCH": "2025-12-10T08:19:18.691104", "MEAN_MOTION": 14.77350899, "ECCENTRICITY": 0.0009941, "INCLINATION": 86.3695, "RA_OF_ASC_NODE": 10.8982, "ARG_OF_PERICENTER": 332.9342, "MEAN_ANOMALY": 49.1777, "EPHEMERIS_TYPE": 0, "CLASSIFICATION_TYPE": "U", "NORAD_CAT_ID": 33884, "ELEMENT_SET_NO": 999, "REV_AT_EPOCH": 88812, "BSTAR": 0.0020635, "MEAN_MOTION_DOT": 0.00014711, "MEAN_MOTION_DDOT": 0}, "tle": {"line1": "1 33884U 97051BD  25344.34674411  .00014711  00000+0  20635-2 0  9997", "line2": "2 33884  86.3695  10.8982 0009941 332.9342  49.1777 14.77350899888127"}}, "geometry": {"type": "Point", "coordinates": [-166.68233209365474, -35.74519896450725]}}, {"type": "Feature", "properties": {"norad_id": 33886, "name": "IRIDIUM 33 DEB", "group": "iridium-33-debris", "lat": 71.04830811090626, "lon": 78.6643967687496, "alt_km": 773.5124699357093, "timestamp": "2025-12-10T18:57:00.450143+00:00", "meta": {"OBJECT_NAME": "IRIDIUM 33 DEB", "OBJECT_ID": "1997-051BF", "EPOCH": "2025-12-10T11:58:44.158944", "MEAN_MOTION": 14.36047962, "ECCENTRICITY": 0.0012175, "INCLINATION": 86.383, "RA_OF_ASC_NODE": 68.1718, "ARG_OF_PERICENTER": 250.4448, "MEAN_ANOMALY": 120.2843, "EPHEMERIS_TYPE": 0, "CLASSIFICATION_TYPE": "U", "NORAD_CAT_ID": 33886, "ELEMENT_SET_NO": 999, "REV_AT_EPOCH": 88020, "BSTAR": 0.00032782, "MEAN_MOTION_DOT": 9.73e-06, "MEAN_MOTION_DDOT": 0}, "tle": {"line1": "1 33886U 97051BF  25344.49912221  .00000973  00000+0  32782-3 0  9991", "line2": "2 33886  86.3830  68.1718 0012175 250.4448 120.2843 14.36047962880202"}}, "geometry": {"type": "Point", "coordinates": [78.6643967687496, 71.04830811090626]}}, {"type": "Feature", "properties": {"norad_id": 33887, "name": "IRIDIUM 33 DEB", "group": "iridium-33-debris", "lat": -0.6008263154546719, "lon": 4.193966240442451, "alt_km": 772.5213774240856, "timestamp": "2025-12-10T18:57:00.450153+00:00", "meta": {"OBJECT_NAME": "IRIDIUM 33 DEB", "OBJECT_ID": "1997-051BG", "EPOCH": "2025-12-10T09:13:38.157024", "MEAN_MOTION": 14.37217786, "ECCENTRICITY": 0.0004256, "INCLINATION": 86.3045, "RA_OF_ASC_NODE": 4.4073, "ARG_OF_PERICENTER": 237.1767, "MEAN_ANOMALY": 187.5472, "EPHEMERIS_TYPE": 0, "CLASSIFICATION_TYPE": "U", "NORAD_CAT_ID": 33887, "ELEMENT_SET_NO": 999, "REV_AT_EPOCH": 88131, "BSTAR": 0.0002235, "MEAN_MOTION_DOT": 6.85e-06, "MEAN_MOTION_DDOT": 0}, "tle": {"line1": "1 33887U 97051BG  25344.38446941  .00000685  00000+0  22350-3 0  9991", "line2": "2 33887  86.3045   4.4073 0004256 237.1767 187.5472 14.37217786881316"}}, "geometry": {"type": "Point", "coordinates": [4.193966240442451, -0.6008263154546719]}}, {"type": "Feature", "properties": {"norad_id": 33953, "name": "IRIDIUM 33 DEB", "group": "iridium-33-debris", "lat": 85.90940503254807, "lon": 116.78272464653183, "alt_km": 688.6862255581082, "timestamp": "2025-12-10T18:57:00.450164+00:00", "meta": {"OBJECT_NAME": "IRIDIUM 33 DEB", "OBJECT_ID": "1997-051BN", "EPOCH": "2025-12-09T23:18:17.054208", "MEAN_MOTION": 14.5527898, "ECCENTRICITY": 0.00184582, "INCLINATION": 86.384, "RA_OF_ASC_NODE": 54.9808, "ARG_OF_PERICENTER": 111.2598, "MEAN_ANOMALY": 11.2257, "EPHEMERIS_TYPE": 0, "CLASSIFICATION_TYPE": "U", "NORAD_CAT_ID": 33953, "ELEMENT_SET_NO": 999, "REV_AT_EPOCH": 88263, "BSTAR": 0.0016887129, "MEAN_MOTION_DOT": 7.353e-05, "MEAN_MOTION_DDOT": 0}, "tle": {"line1": "1 33953U 97051BN  25343.97103072  .00007353  00000+0  16887-2 0  9990", "line2": "2 33953  86.3840  54.9808 0018458 111.2598  11.2257 14.55278980882635"}}, "geometry": {"type": "Point", "coordinates": [116.78272464653183, 85.90940503254807]}}, {"type": "Feature", "properties": {"norad_id": 33960, "name": "IRIDIUM 33 DEB", "group": "iridium-33-debris", "lat": 43.25303795260713, "lon": -66.03185914578143, "alt_km": 605.170287848784, "timestamp": "2025-12-10T18:57:00.450175+00:00", "meta": {"OBJECT_NAME": "IRIDIUM 33 DEB", "OBJECT_ID": "1997-051BV", "EPOCH": "2025-12-10T08:09:24.835392", "MEAN_MOTION": 14.84978934, "ECCENTRICITY": 0.0007472, "INCLINATION": 86.2534, "RA_OF_ASC_NODE": 290.6456, "ARG_OF_PERICENTER": 66.0574, "MEAN_ANOMALY": 94.8264, "EPHEMERIS_TYPE": 0, "CLASSIFICATION_TYPE": "U", "NORAD_CAT_ID": 33960, "ELEMENT_SET_NO": 999, "REV_AT_EPOCH": 88831, "BSTAR": 0.0048552, "MEAN_MOTION_DOT": 0.00041622, "MEAN_MOTION_DDOT": 0}, "tle": {"line1": "1 33960U 97051BV  25344.33987078  .00041622  00000+0  48552-2 0  9996", "line2": "2 33960  86.2534 290.6456 0007472  66.0574  94.8264 14.84978934888319"}}, "geometry": {"type": "Point", "coordinates": [-66.03185914578143, 43.25303795260713]}}, {"type": "Feature", "properties": {"norad_id": 33966, "name": "IRIDIUM 33 DEB", "group": "iridium-33-debris", "lat": -74.02392492488919, "lon": -120.40503216461201, "alt_km": 731.8576130198971, "timestamp": "2025-12-10T18:57:00.450185+00:00", "meta": {"OBJECT_NAME": "IRIDIUM 33 DEB", "OBJECT_ID": "1997-051CB", "EPOCH": "2025-12-10T11:13:12.353376", "MEAN_MOTION": 14.49579409, "ECCENTRICITY": 0.0007144, "INCLINATION": 86.3923, "RA_OF_ASC_NODE": 47.0023, "ARG_OF_PERICENTER": 195.7966, "MEAN_ANOMALY": 178.807, "EPHEMERIS_TYPE": 0, "CLASSIFICATION_TYPE": "U", "NORAD_CAT_ID": 33966, "ELEMENT_SET_NO": 999, "REV_AT_EPOCH": 88409, "BSTAR": 0.00084014, "MEAN_MOTION_DOT": 3.244e-05, "MEAN_MOTION_DDOT": 0}, "tle": {"line1": "1 33966U 97051CB  25344.46750409  .00003244  00000+0  84014-3 0  9994", "line2": "2 33966  86.3923  47.0023 0007144 195.7966 178.8070 14.49579409884097"}}, "geometry": {"type": "Point", "coordinates": [-120.40503216461201, -74.02392492488919]}}, {"type": "Feature", "properties": {"norad_id": 34071, "name": "IRIDIUM 33 DEB", "group": "iridium-33-debris", "lat": -38.45080607681328, "lon": 15.767121631560897, "alt_km": 740.0997731126454, "timestamp": "2025-12-10T18:57:00.450196+00:00", "meta": {"OBJECT_NAME": "IRIDIUM 33 DEB", "OBJECT_ID": "1997-051CE", "EPOCH": "2025-12-10T10:50:36.682944", "MEAN_MOTION": 14.4944829, "ECCENTRICITY": 0.0009857, "INCLINATION": 86.3457, "RA_OF_ASC_NODE": 18.8226, "ARG_OF_PERICENTER": 113.7081, "MEAN_ANOMALY": 246.5159, "EPHEMERIS_TYPE": 0, "CLASSIFICATION_TYPE": "U", "NORAD_CAT_ID": 34071, "ELEMENT_SET_NO": 999, "REV_AT_EPOCH": 88301, "BSTAR": 0.00086211, "MEAN_MOTION_DOT": 3.32e-05, "MEAN_MOTION_DDOT": 0}, "tle": {"line1": "1 34071U 97051CE  25344.45181346  .00003320  00000+0  86211-3 0  9995", "line2": "2 34071  86.3457  18.8226 0009857 113.7081 246.5159 14.49448290883014"}}, "geometry": {"type": "Point", "coordinates": [15.767121631560897, -38.45080607681328]}}]}